start=new Date('2023-04-06T00:00:00.000Z').valueOf();
sats=[{"MEAN_MOTION_DDOT":"0.0000000000000","FILE":"3880853","RA_OF_ASC_NODE":"110.3649","EPHEMERIS_TYPE":"0","OBJECT_TYPE":"PAYLOAD","SITE":"AFWTR","MEAN_ELEMENT_THEORY":"SGP4","NORAD_CAT_ID":"49161","MEAN_ANOMALY":"80.2670","PERIOD":"96.104","INCLINATION":"70.0009","ARG_OF_PERICENTER":"279.8149","TIME_SYSTEM":"UTC","MEAN_MOTION_DOT":"-0.00011164","APOAPSIS":"573.993","TLE_LINE1":"1 49161U 21082AH  23095.45288506 -.00011164  00000-0 -92808-3 0  9996","TLE_LINE2":"2 49161  70.0009 110.3649 0003015 279.8149  80.2670 14.98381876 86891","MEAN_MOTION":"14.98381876","COUNTRY_CODE":"US","CENTER_NAME":"EARTH","PERIAPSIS":"569.802","DECAY_DATE":null,"REV_AT_EPOCH":"8689","ECCENTRICITY":"0.00030150","BSTAR":"-0.00092808000000","CLASSIFICATION_TYPE":"U","OBJECT_ID":"2021-082AH","EPOCH":"2023-04-05T10:52:09.269184","LAUNCH_DATE":"2021-09-14","ELEMENT_SET_NO":"999","RCS_SIZE":"LARGE","GP_ID":"229535345","REF_FRAME":"TEME","OBJECT_NAME":"STARLINK-3080","SEMIMAJOR_AXIS":"6950.032"},{"EPHEMERIS_TYPE":"0","RA_OF_ASC_NODE":"110.3932","OBJECT_TYPE":"PAYLOAD","FILE":"3880853","MEAN_MOTION_DDOT":"0.0000000000000","MEAN_ANOMALY":"92.0487","MEAN_ELEMENT_THEORY":"SGP4","NORAD_CAT_ID":"49162","ARG_OF_PERICENTER":"268.0350","PERIOD":"96.107","INCLINATION":"69.9989","SITE":"AFWTR","APOAPSIS":"574.013","MEAN_MOTION_DOT":"0.00000141","TIME_SYSTEM":"UTC","TLE_LINE1":"1 49162U 21082AJ  23095.44455479  .00000141  00000-0  19572-4 0  9990","TLE_LINE2":"2 49162  69.9989 110.3932 0002807 268.0350  92.0487 14.98328594 86977","COUNTRY_CODE":"US","MEAN_MOTION":"14.98328594","DECAY_DATE":null,"PERIAPSIS":"570.111","ECCENTRICITY":"0.00028070","REV_AT_EPOCH":"8697","CENTER_NAME":"EARTH","CLASSIFICATION_TYPE":"U","OBJECT_ID":"2021-082AJ","BSTAR":"0.00001957200000","SEMIMAJOR_AXIS":"6950.197","EPOCH":"2023-04-05T10:40:09.533856","LAUNCH_DATE":"2021-09-14","ELEMENT_SET_NO":"999","OBJECT_NAME":"STARLINK-3082","RCS_SIZE":"LARGE","GP_ID":"229535595","REF_FRAME":"TEME"},{"BSTAR":"0.00003035800000","OBJECT_ID":"2021-082AK","CLASSIFICATION_TYPE":"U","OBJECT_NAME":"STARLINK-3088","GP_ID":"229570004","REF_FRAME":"TEME","RCS_SIZE":"LARGE","LAUNCH_DATE":"2021-09-14","ELEMENT_SET_NO":"999","EPOCH":"2023-04-05T16:28:18.584544","SEMIMAJOR_AXIS":"6950.193","MEAN_MOTION":"14.98329869","COUNTRY_CODE":"US","TLE_LINE2":"2 49163  69.9987  89.7909 0002978 270.7617  89.3201 14.98329869 87503","CENTER_NAME":"EARTH","ECCENTRICITY":"0.00029780","REV_AT_EPOCH":"8750","DECAY_DATE":null,"PERIAPSIS":"569.989","TIME_SYSTEM":"UTC","APOAPSIS":"574.128","MEAN_MOTION_DOT":"0.00000269","TLE_LINE1":"1 49163U 21082AK  23095.68632621  .00000269  00000-0  30358-4 0  9999","MEAN_MOTION_DDOT":"0.0000000000000","FILE":"3881153","OBJECT_TYPE":"PAYLOAD","EPHEMERIS_TYPE":"0","RA_OF_ASC_NODE":"89.7909","SITE":"AFWTR","ARG_OF_PERICENTER":"270.7617","INCLINATION":"69.9987","PERIOD":"96.107","MEAN_ANOMALY":"89.3201","MEAN_ELEMENT_THEORY":"SGP4","NORAD_CAT_ID":"49163"},{"MEAN_MOTION_DOT":"0.00000643","APOAPSIS":"573.987","TIME_SYSTEM":"UTC","TLE_LINE1":"1 49164U 21082AL  23095.67798052  .00000643  00000-0  61712-4 0  9994","RA_OF_ASC_NODE":"89.8210","EPHEMERIS_TYPE":"0","OBJECT_TYPE":"PAYLOAD","MEAN_MOTION_DDOT":"0.0000000000000","FILE":"3881153","MEAN_ELEMENT_THEORY":"SGP4","NORAD_CAT_ID":"49164","MEAN_ANOMALY":"93.3229","PERIOD":"96.107","INCLINATION":"69.9988","ARG_OF_PERICENTER":"266.7612","SITE":"AFWTR","CLASSIFICATION_TYPE":"U","OBJECT_ID":"2021-082AL","BSTAR":"0.00006171200000","SEMIMAJOR_AXIS":"6950.187","EPOCH":"2023-04-05T16:16:17.516928","LAUNCH_DATE":"2021-09-14","ELEMENT_SET_NO":"999","GP_ID":"229569737","REF_FRAME":"TEME","RCS_SIZE":"LARGE","OBJECT_NAME":"STARLINK-3106","TLE_LINE2":"2 49164  69.9988  89.8210 0002783 266.7612  93.3229 14.98331797 87514","MEAN_MOTION":"14.98331797","COUNTRY_CODE":"US","PERIAPSIS":"570.118","DECAY_DATE":null,"REV_AT_EPOCH":"8751","ECCENTRICITY":"0.00027830","CENTER_NAME":"EARTH"},{"SITE":"AFWTR","ARG_OF_PERICENTER":"268.2951","INCLINATION":"69.9978","PERIOD":"96.107","MEAN_ANOMALY":"91.7877","MEAN_ELEMENT_THEORY":"SGP4","NORAD_CAT_ID":"49165","FILE":"3880853","MEAN_MOTION_DDOT":"0.0000000000000","OBJECT_TYPE":"PAYLOAD","EPHEMERIS_TYPE":"0","RA_OF_ASC_NODE":"110.4067","TLE_LINE1":"1 49165U 21082AM  23095.44054563  .00000863  00000-0  80133-4 0  9994","TIME_SYSTEM":"UTC","APOAPSIS":"574.072","MEAN_MOTION_DOT":"0.00000863","CENTER_NAME":"EARTH","ECCENTRICITY":"0.00028950","REV_AT_EPOCH":"8701","DECAY_DATE":null,"PERIAPSIS":"570.047","MEAN_MOTION":"14.98329468","COUNTRY_CODE":"US","TLE_LINE2":"2 49165  69.9978 110.4067 0002895 268.2951  91.7877 14.98329468 87010","OBJECT_NAME":"STARLINK-3052","RCS_SIZE":"LARGE","GP_ID":"229535845","REF_FRAME":"TEME","EPOCH":"2023-04-05T10:34:23.142432","LAUNCH_DATE":"2021-09-14","ELEMENT_SET_NO":"999","SEMIMAJOR_AXIS":"6950.195","BSTAR":"0.00008013300000","OBJECT_ID":"2021-082AM","CLASSIFICATION_TYPE":"U"},{"MEAN_MOTION_DDOT":"0.0000000000000","FILE":"3881153","OBJECT_TYPE":"PAYLOAD","RA_OF_ASC_NODE":"89.8047","EPHEMERIS_TYPE":"0","SITE":"AFWTR","PERIOD":"96.106","INCLINATION":"69.9987","ARG_OF_PERICENTER":"271.7273","MEAN_ELEMENT_THEORY":"SGP4","NORAD_CAT_ID":"49166","MEAN_ANOMALY":"88.3554","TIME_SYSTEM":"UTC","MEAN_MOTION_DOT":"-0.00001775","APOAPSIS":"574.035","TLE_LINE1":"1 49166U 21082AN  23095.68214971 -.00001775  00000-0 -14100-3 0  9997","COUNTRY_CODE":"US","MEAN_MOTION":"14.98340778","TLE_LINE2":"2 49166  69.9987  89.8047 0002893 271.7273  88.3554 14.98340778 87541","CENTER_NAME":"EARTH","REV_AT_EPOCH":"8754","ECCENTRICITY":"0.00028930","PERIAPSIS":"570.014","DECAY_DATE":null,"BSTAR":"-0.00014100000000","OBJECT_ID":"2021-082AN","CLASSIFICATION_TYPE":"U","REF_FRAME":"TEME","GP_ID":"229569253","RCS_SIZE":"LARGE","OBJECT_NAME":"STARLINK-3089","LAUNCH_DATE":"2021-09-14","ELEMENT_SET_NO":"999","EPOCH":"2023-04-05T16:22:17.734944","SEMIMAJOR_AXIS":"6950.160"},{"SEMIMAJOR_AXIS":"6950.200","LAUNCH_DATE":"2021-09-14","EPOCH":"2023-04-05T18:28:48.864864","ELEMENT_SET_NO":"999","OBJECT_NAME":"STARLINK-3054","RCS_SIZE":"LARGE","GP_ID":"229569504","REF_FRAME":"TEME","CLASSIFICATION_TYPE":"U","OBJECT_ID":"2021-082AP","BSTAR":"0.00013411000000","DECAY_DATE":null,"PERIAPSIS":"569.974","ECCENTRICITY":"0.00030090","REV_AT_EPOCH":"8706","CENTER_NAME":"EARTH","TLE_LINE2":"2 49167  69.9984 109.5792 0003009 265.4229  94.6586 14.98327622 87062","COUNTRY_CODE":"US","MEAN_MOTION":"14.98327622","TLE_LINE1":"1 49167U 21082AP  23095.77001001  .00001507  00000-0  13411-3 0  9991","APOAPSIS":"574.157","MEAN_MOTION_DOT":"0.00001507","TIME_SYSTEM":"UTC","MEAN_ANOMALY":"94.6586","NORAD_CAT_ID":"49167","MEAN_ELEMENT_THEORY":"SGP4","ARG_OF_PERICENTER":"265.4229","PERIOD":"96.107","INCLINATION":"69.9984","SITE":"AFWTR","EPHEMERIS_TYPE":"0","RA_OF_ASC_NODE":"109.5792","OBJECT_TYPE":"PAYLOAD","FILE":"3881153","MEAN_MOTION_DDOT":"0.0000000000000"},{"BSTAR":"0.00008927200000","CLASSIFICATION_TYPE":"U","OBJECT_ID":"2021-082AQ","EPOCH":"2023-04-05T09:33:43.613280","LAUNCH_DATE":"2021-09-14","ELEMENT_SET_NO":"999","RCS_SIZE":"LARGE","GP_ID":"229536585","REF_FRAME":"TEME","OBJECT_NAME":"STARLINK-3101","SEMIMAJOR_AXIS":"6950.187","TLE_LINE2":"2 49168  69.9994  90.5101 0003164 270.0059  90.0737 14.98331885 87505","COUNTRY_CODE":"US","MEAN_MOTION":"14.98331885","CENTER_NAME":"EARTH","PERIAPSIS":"569.853","DECAY_DATE":null,"REV_AT_EPOCH":"8750","ECCENTRICITY":"0.00031640","TIME_SYSTEM":"UTC","MEAN_MOTION_DOT":"0.00000972","APOAPSIS":"574.251","TLE_LINE1":"1 49168U 21082AQ  23095.39842145  .00000972  00000-0  89272-4 0  9996","FILE":"3880853","MEAN_MOTION_DDOT":"0.0000000000000","RA_OF_ASC_NODE":"90.5101","EPHEMERIS_TYPE":"0","OBJECT_TYPE":"PAYLOAD","SITE":"AFWTR","MEAN_ELEMENT_THEORY":"SGP4","NORAD_CAT_ID":"49168","MEAN_ANOMALY":"90.0737","PERIOD":"96.107","INCLINATION":"69.9994","ARG_OF_PERICENTER":"270.0059"},{"NORAD_CAT_ID":"49169","MEAN_ELEMENT_THEORY":"SGP4","MEAN_ANOMALY":"94.0808","INCLINATION":"69.9985","PERIOD":"96.107","ARG_OF_PERICENTER":"265.9997","SITE":"AFWTR","RA_OF_ASC_NODE":"90.5084","EPHEMERIS_TYPE":"0","OBJECT_TYPE":"PAYLOAD","MEAN_MOTION_DDOT":"0.0000000000000","FILE":"3880853","TLE_LINE1":"1 49169U 21082AR  23095.40676801  .00000190  00000-0  23725-4 0  9996","MEAN_MOTION_DOT":"0.00000190","APOAPSIS":"574.208","TIME_SYSTEM":"UTC","PERIAPSIS":"569.900","DECAY_DATE":null,"REV_AT_EPOCH":"8630","ECCENTRICITY":"0.00030990","CENTER_NAME":"EARTH","TLE_LINE2":"2 49169  69.9985  90.5084 0003099 265.9997  94.0808 14.98331375 86301","COUNTRY_CODE":"US","MEAN_MOTION":"14.98331375","SEMIMAJOR_AXIS":"6950.189","LAUNCH_DATE":"2021-09-14","EPOCH":"2023-04-05T09:45:44.756064","ELEMENT_SET_NO":"999","REF_FRAME":"TEME","GP_ID":"229535346","RCS_SIZE":"LARGE","OBJECT_NAME":"STARLINK-3046","CLASSIFICATION_TYPE":"U","OBJECT_ID":"2021-082AR","BSTAR":"0.00002372500000"},{"TIME_SYSTEM":"UTC","APOAPSIS":"574.274","MEAN_MOTION_DOT":"0.00000205","TLE_LINE1":"1 49170U 21082AS  23095.74497112  .00000205  00000-0  25008-4 0  9994","FILE":"3881153","MEAN_MOTION_DDOT":"0.0000000000000","EPHEMERIS_TYPE":"0","RA_OF_ASC_NODE":"109.6472","OBJECT_TYPE":"PAYLOAD","SITE":"AFWTR","MEAN_ANOMALY":"90.8246","NORAD_CAT_ID":"49170","MEAN_ELEMENT_THEORY":"SGP4","ARG_OF_PERICENTER":"269.2547","PERIOD":"96.107","INCLINATION":"69.9984","BSTAR":"0.00002500800000","CLASSIFICATION_TYPE":"U","OBJECT_ID":"2021-082AS","ELEMENT_SET_NO":"999","LAUNCH_DATE":"2021-09-14","EPOCH":"2023-04-05T17:52:45.504768","OBJECT_NAME":"STARLINK-3074","GP_ID":"229568753","REF_FRAME":"TEME","RCS_SIZE":"LARGE","SEMIMAJOR_AXIS":"6950.189","TLE_LINE2":"2 49170  69.9984 109.6472 0003194 269.2547  90.8246 14.98331255 85866","MEAN_MOTION":"14.98331255","COUNTRY_CODE":"US","CENTER_NAME":"EARTH","DECAY_DATE":null,"PERIAPSIS":"569.834","ECCENTRICITY":"0.00031940","REV_AT_EPOCH":"8586"}];
